NORAD_CAT_ID,OBJECT_NAME,OBJECT_TYPE,EPOCH,MEAN_MOTION,ECCENTRICITY,INCLINATION,RA_OF_ASC_NODE,ARG_OF_PERICENTER,MEAN_ANOMALY,BSTAR,MEAN_MOTION_DOT,MEAN_MOTION_DDOT,TLE_LINE0,TLE_LINE1,TLE_LINE2,SEMIMAJOR_AXIS,PERIOD,APOGEE,PERIGEE,DECAYED
49156.0,STARLINK-3085,PAYLOAD,2024-01-27 03:06:34,14.98332005,0.0002613,70.0002,42.3475,259.6098,100.4767,3.2784e-05,2.98e-06,0.0,0 STARLINK-3085,1 49156U 21082AC  24027.12956939  .00000298  00000-0  32784-4 0  9994,2 49156  70.0002  42.3475 0002613 259.6098 100.4767 14.98332005132323,6950.187,96.107,573.868,570.236,0.0
49156.0,STARLINK-3085,PAYLOAD,2024-01-27 11:07:15,14.98331069,0.0002646,70.0002,41.5055,262.7444,97.3415,1.7668e-05,1.18e-06,0.0,0 STARLINK-3085,1 49156U 21082AC  24027.46337052  .00000118  00000-0  17668-4 0  9995,2 49156  70.0002  41.5055 0002646 262.7444  97.3415 14.98331069132372,6950.19,96.107,573.894,570.216,0.0
49156.0,STARLINK-3085,PAYLOAD,2024-01-28 04:44:43,14.98332646,0.0002704,70.0002,39.6535,267.0353,93.0497,6.5411e-05,6.88e-06,0.0,0 STARLINK-3085,1 49156U 21082AC  24028.19772726  .00000688  00000-0  65411-4 0  9998,2 49156  70.0002  39.6535 0002704 267.0353  93.0497 14.98332646132482,6950.185,96.107,573.929,570.17,0.0
49156.0,STARLINK-3085,PAYLOAD,2024-01-28 11:09:15,14.98332589,0.0002708,70.0002,38.9802,267.1548,92.9302,6.1329e-05,6.39e-06,0.0,0 STARLINK-3085,1 49156U 21082AC  24028.46476736  .00000639  00000-0  61329-4 0  9990,2 49156  70.0002  38.9802 0002708 267.1548  92.9302 14.98332589132526,6950.185,96.107,573.932,570.168,0.0
49156.0,STARLINK-3085,PAYLOAD,2024-01-29 09:35:08,14.98332417,0.0002715,70.0003,36.6236,266.0956,93.9892,6.9188e-05,7.33e-06,0.0,0 STARLINK-3085,1 49156U 21082AC  24029.39940636  .00000733  00000-0  69188-4 0  9994,2 49156  70.0003  36.6236 0002715 266.0956  93.9892 14.98332417132662,6950.185,96.107,573.937,570.163,0.0
49156.0,STARLINK-3085,PAYLOAD,2024-01-30 09:37:09,14.98331246,0.0002638,70.0007,34.0996,261.509,98.577,2.1034e-05,1.58e-06,0.0,0 STARLINK-3085,1 49156U 21082AC  24030.40080695  .00000158  00000-0  21034-4 0  9997,2 49156  70.0007  34.0996 0002638 261.5090  98.5770 14.98331246132816,6950.189,96.107,573.887,570.221,0.0
49156.0,STARLINK-3085,PAYLOAD,2024-01-31 09:39:10,14.98329778,0.0002632,70.0008,31.5747,256.6999,103.3867,6.4793e-06,-1.6e-07,0.0,0 STARLINK-3085,1 49156U 21082AC  24031.40220752 -.00000016  00000-0  64793-5 0  9992,2 49156  70.0008  31.5747 0002632 256.6999 103.3867 14.98329778132965,6950.194,96.107,573.888,570.229,0.0
49156.0,STARLINK-3085,PAYLOAD,2024-02-01 09:41:11,14.98328662,0.0002825,70.0002,29.0489,266.0639,94.0197,8.9519e-06,1.4e-07,0.0,0 STARLINK-3085,1 49156U 21082AC  24032.40360919  .00000014  00000-0  89519-5 0  9993,2 49156  70.0002  29.0489 0002825 266.0639  94.0197 14.98328662133115,6950.197,96.107,574.025,570.099,0.0
49156.0,STARLINK-3085,PAYLOAD,2024-02-02 03:18:40,14.98343963,0.0002884,69.9998,27.1971,264.7303,95.3527,-0.00015262,-1.914e-05,0.0,0 STARLINK-3085,1 49156U 21082AC  24033.13796401 -.00001914  00000-0 -15262-3 0  9997,2 49156  69.9998  27.1971 0002884 264.7303  95.3527 14.98343963133223,6950.15,96.106,574.019,570.01,0.0
49156.0,STARLINK-3085,PAYLOAD,2024-02-02 09:43:12,14.98334897,0.0002895,70.0001,26.5239,264.5846,95.4983,0.00010231,1.128e-05,0.0,0 STARLINK-3085,1 49156U 21082AC  24033.40500211  .00001128  00000-0  10231-3 0  9995,2 49156  70.0001  26.5239 0002895 264.5846  95.4983 14.98334897133260,6950.178,96.107,574.055,570.031,0.0
49156.0,STARLINK-3085,PAYLOAD,2024-02-03 03:20:41,14.98328352,0.0002725,70.0005,24.6725,262.2641,97.8208,4.8767e-05,4.89e-06,0.0,0 STARLINK-3085,1 49156U 21082AC  24034.13936712  .00000489  00000-0  48767-4 0  9990,2 49156  70.0005  24.6725 0002725 262.2641  97.8208 14.98328352133370,6950.198,96.107,573.957,570.169,0.0
49156.0,STARLINK-3085,PAYLOAD,2024-02-03 09:45:13,14.98330018,0.0002715,70.0005,23.9989,262.3837,97.7013,6.575e-05,6.92e-06,0.0,0 STARLINK-3085,1 49156U 21082AC  24034.40640618  .00000692  00000-0  65750-4 0  9994,2 49156  70.0005  23.9989 0002715 262.3837  97.7013 14.98330018133411,6950.193,96.107,573.945,570.171,0.0
49156.0,STARLINK-3085,PAYLOAD,2024-02-04 04:58:50,14.983335,0.0002639,70.0007,21.9785,264.2286,95.8573,1.254e-05,5.7e-07,0.0,0 STARLINK-3085,1 49156U 21082AC  24035.20752407  .00000057  00000-0  12540-4 0  9997,2 49156  70.0007  21.9785 0002639 264.2286  95.8573 14.98333500133531,6950.182,96.107,573.881,570.213,0.0
49156.0,STARLINK-3085,PAYLOAD,2024-02-04 09:47:14,14.98335229,0.0002611,70.0008,21.4734,264.8833,95.2028,3.5607e-05,3.32e-06,0.0,0 STARLINK-3085,1 49156U 21082AC  24035.40780237  .00000332  00000-0  35607-4 0  9996,2 49156  70.0008  21.4734 0002611 264.8833  95.2028 14.98335229133567,6950.177,96.107,573.856,570.227,0.0
49156.0,STARLINK-3085,PAYLOAD,2024-02-05 08:13:07,14.98329803,0.0002635,70.0008,19.1163,263.7805,96.3054,4.4225e-05,4.35e-06,0.0,0 STARLINK-3085,1 49156U 21082AC  24036.34244480  .00000435  00000-0  44225-4 0  9995,2 49156  70.0008  19.1163 0002635 263.7805  96.3054 14.98329803133708,6950.194,96.107,573.89,570.227,0.0
49156.0,STARLINK-3085,PAYLOAD,2024-02-06 08:15:07,14.98333436,0.0002681,70.001,16.5914,264.7973,95.288,3.7994e-05,3.6e-06,0.0,0 STARLINK-3085,1 49156U 21082AC  24037.34384181  .00000360  00000-0  37994-4 0  9991,2 49156  70.0010  16.5914 0002681 264.7973  95.2880 14.98333436133852,6950.182,96.107,573.911,570.184,0.0
49156.0,STARLINK-3085,PAYLOAD,2024-02-06 22:40:20,14.98329233,0.0002707,70.0012,15.0781,260.1176,99.9678,3.0336e-05,2.69e-06,0.0,0 STARLINK-3085,1 49156U 21082AC  24037.94468424  .00000269  00000-0  30336-4 0  9991,2 49156  70.0012  15.0781 0002707 260.1176  99.9678 14.98329233133940,6950.195,96.107,573.942,570.179,0.0
49156.0,STARLINK-3085,PAYLOAD,2024-02-07 08:17:09,14.98329312,0.0002709,70.0013,14.0688,260.6917,99.3936,2.668e-05,2.25e-06,0.0,0 STARLINK-3085,1 49156U 21082AC  24038.34524469  .00000225  00000-0  26680-4 0  9997,2 49156  70.0013  14.0688 0002709 260.6917  99.3936 14.98329312134003,6950.195,96.107,573.943,570.177,0.0
49156.0,STARLINK-3085,PAYLOAD,2024-02-08 08:19:09,14.98337135,0.000267,70.0015,11.5436,265.9219,94.1635,9.4616e-05,1.036e-05,0.0,0 STARLINK-3085,1 49156U 21082AC  24039.34663757  .00001036  00000-0  94616-4 0  9997,2 49156  70.0015  11.5436 0002670 265.9219  94.1635 14.98337135134155,6950.171,96.107,573.892,570.18,0.0
49156.0,STARLINK-3085,PAYLOAD,2024-02-08 22:44:22,14.98328683,0.0002518,70.0019,10.0291,265.0672,95.0199,6.2791e-05,6.56e-06,0.0,0 STARLINK-3085,1 49156U 21082AC  24039.94748305  .00000656  00000-0  62791-4 0  9992,2 49156  70.0019  10.0291 0002518 265.0672  95.0199 14.98328683134240,6950.197,96.107,573.812,570.312,0.0
49156.0,STARLINK-3085,PAYLOAD,2024-02-09 03:32:46,14.98328343,0.0002437,70.0022,9.5248,258.7704,101.3182,6.7428e-05,7.12e-06,0.0,0 STARLINK-3085,1 49156U 21082AC  24040.14776307  .00000712  00000-0  67428-4 0  9994,2 49156  70.0022   9.5248 0002437 258.7704 101.3182 14.98328343134273,6950.198,96.107,573.757,570.369,0.0
49156.0,STARLINK-3085,PAYLOAD,2024-02-09 06:45:02,14.98329439,0.0002532,70.0019,9.1876,264.4692,95.6178,6.266e-05,6.55e-06,0.0,0 STARLINK-3085,1 49156U 21082AC  24040.28128276  .00000655  00000-0  62660-4 0  9994,2 49156  70.0019   9.1876 0002532 264.4692  95.6178 14.98329439134297,6950.195,96.107,573.819,570.3,0.0
49156.0,STARLINK-3085,PAYLOAD,2024-02-10 03:34:47,14.98324374,0.0002764,70.0017,6.9981,265.083,95.0014,6.5227e-05,6.85e-06,0.0,0 STARLINK-3085,1 49156U 21082AC  24041.14916548  .00000685  00000-0  65227-4 0  9992,2 49156  70.0017   6.9981 0002764 265.0830  95.0014 14.98324374134426,6950.21,96.107,573.996,570.154,0.0
49156.0,STARLINK-3085,PAYLOAD,2024-02-10 08:23:11,14.98330349,0.0002631,70.0016,6.4931,263.4131,96.6728,7.1613e-06,-7e-08,0.0,0 STARLINK-3085,1 49156U 21082AC  24041.34944376 -.00000007  00000-0  71613-5 0  9990,2 49156  70.0016   6.4931 0002631 263.4131  96.6728 14.98330349134455,6950.192,96.107,573.885,570.228,0.0
49156.0,STARLINK-3085,PAYLOAD,2024-02-10 22:48:24,14.98328189,0.0002572,70.0021,4.9798,246.7638,113.325,2.6017e-05,2.18e-06,0.0,0 STARLINK-3085,1 49156U 21082AC  24041.95028490  .00000218  00000-0  26017-4 0  9997,2 49156  70.0021   4.9798 0002572 246.7638 113.3250 14.98328189134541,6950.198,96.107,573.851,570.276,0.0
49156.0,STARLINK-3085,PAYLOAD,2024-02-11 03:36:48,14.98325194,0.0002727,70.002,4.4738,254.5392,105.5466,4.5816e-05,4.54e-06,0.0,0 STARLINK-3085,1 49156U 21082AC  24042.15056646  .00000454  00000-0  45816-4 0  9994,2 49156  70.0020   4.4738 0002727 254.5392 105.5466 14.98325194134573,6950.208,96.107,573.968,570.177,0.0
49156.0,STARLINK-3085,PAYLOAD,2024-02-11 06:49:04,14.98327463,0.000292,70.0015,4.137,263.6456,96.437,0.00012953,1.453e-05,0.0,0 STARLINK-3085,1 49156U 21082AC  24042.28408348  .00001453  00000-0  12953-3 0  9993,2 49156  70.0015   4.1370 0002920 263.6456  96.4370 14.98327463134598,6950.201,96.107,574.095,570.036,0.0
49156.0,STARLINK-3085,PAYLOAD,2024-02-11 22:50:25,14.98333344,0.0002772,70.0016,2.4534,265.7634,94.3208,0.00011036,1.224e-05,0.0,0 STARLINK-3085,1 49156U 21082AC  24042.95167963  .00001224  00000-0  11036-3 0  9999,2 49156  70.0016   2.4534 0002772 265.7634  94.3208 14.98333344134691,6950.183,96.107,573.974,570.121,0.0
49156.0,STARLINK-3085,PAYLOAD,2024-02-12 03:38:49,14.98334169,0.0002768,70.0015,1.9482,265.3564,94.7279,0.00012219,1.365e-05,0.0,0 STARLINK-3085,1 49156U 21082AC  24043.15195863  .00001365  00000-0  12219-3 0  9992,2 49156  70.0015   1.9482 0002768 265.3564  94.7279 14.98334169134721,6950.18,96.107,573.969,570.121,0.0
49156.0,STARLINK-3085,PAYLOAD,2024-02-12 06:51:04,14.9834148,0.0002742,70.0016,1.612,264.8213,95.2633,0.00020987,2.413e-05,0.0,0 STARLINK-3085,1 49156U 21082AC  24043.28547193  .00002413  00000-0  20987-3 0  9999,2 49156  70.0016   1.6120 0002742 264.8213  95.2633 14.98341480134741,6950.157,96.106,573.928,570.117,0.0
